{
  "original_analysis": {
    "covered_bins": 36,
    "total_bins": 36,
    "coverage_percent": 100.0,
    "distribution": {
      "9": 237,
      "7": 299,
      "11": 222,
      "5": 175,
      "6": 300,
      "34": 325,
      "8": 363,
      "10": 232,
      "13": 201,
      "12": 224,
      "22": 212,
      "24": 224,
      "25": 247,
      "20": 215,
      "21": 242,
      "23": 181,
      "4": 241,
      "18": 188,
      "16": 270,
      "17": 215,
      "19": 179,
      "15": 218,
      "29": 262,
      "27": 245,
      "31": 186,
      "26": 243,
      "28": 166,
      "3": 343,
      "1": 143,
      "33": 312,
      "35": 308,
      "32": 245,
      "30": 297,
      "14": 166,
      "0": 274,
      "2": 295
    },
    "total_satellites": 8695
  },
  "phase2_results": {
    "phase": "Phase 2 - Orbital Diversity Filtering",
    "input_count": 8695,
    "output_count": 500,
    "reduction_ratio": 0.05750431282346176,
    "selected_satellites": [
      {
        "OBJECT_NAME": "STARLINK-3043",
        "OBJECT_ID": "2021-082BB",
        "EPOCH": "2025-07-31T20:54:58.864896",
        "MEAN_MOTION": 14.98329737,
        "ECCENTRICITY": 0.0002937,
        "INCLINATION": 70.0001,
        "RA_OF_ASC_NODE": 91.2079,
        "ARG_OF_PERICENTER": 269.6627,
        "MEAN_ANOMALY": 90.4195,
        "EPHEMERIS_TYPE": 0,
        "CLASSIFICATION_TYPE": "U",
        "NORAD_CAT_ID": 49179,
        "ELEMENT_SET_NO": 999,
        "REV_AT_EPOCH": 21388,
        "BSTAR": 4.1147e-05,
        "MEAN_MOTION_DOT": 3.98e-06,
        "MEAN_MOTION_DDOT": 0,
        "constellation": "starlink",
        "quality_scores": {
          "orbital_stability": 21.6782871,
          "coverage_uniformity": 20,
          "handover_frequency": 15.13421111111111,
          "signal_quality": 25,
          "total_score": 81.8124982111111
        }
      },
      {
        "OBJECT_NAME": "STARLINK-3057",
        "OBJECT_ID": "2021-082K",
        "EPOCH": "2025-07-31T21:43:02.790624",
        "MEAN_MOTION": 14.98330953,
        "ECCENTRICITY": 0.0002815,
        "INCLINATION": 70.0003,
        "RA_OF_ASC_NODE": 91.1245,
        "ARG_OF_PERICENTER": 269.8313,
        "MEAN_ANOMALY": 90.2523,
        "EPHEMERIS_TYPE": 0,
        "CLASSIFICATION_TYPE": "U",
        "NORAD_CAT_ID": 49139,
        "ELEMENT_SET_NO": 999,
        "REV_AT_EPOCH": 21389,
        "BSTAR": 2.6936e-05,
        "MEAN_MOTION_DOT": 2.28e-06,
        "MEAN_MOTION_DDOT": 0,
        "constellation": "starlink",
        "quality_scores": {
          "orbital_stability": 21.680076566666667,
          "coverage_uniformity": 20,
          "handover_frequency": 15.124944444444445,
          "signal_quality": 25,
          "total_score": 81.80502101111111
        }
      },
      {
        "OBJECT_NAME": "STARLINK-3071",
        "OBJECT_ID": "2021-082T",
        "EPOCH": "2025-07-31T21:19:01.131456",
        "MEAN_MOTION": 14.9834278,
        "ECCENTRICITY": 0.0003211,
        "INCLINATION": 70,
        "RA_OF_ASC_NODE": 91.1805,
        "ARG_OF_PERICENTER": 263.5591,
        "MEAN_ANOMALY": 96.5202,
        "EPHEMERIS_TYPE": 0,
        "CLASSIFICATION_TYPE": "U",
        "NORAD_CAT_ID": 49147,
        "ELEMENT_SET_NO": 999,
        "REV_AT_EPOCH": 21389,
        "BSTAR": 0.0001138,
        "MEAN_MOTION_DOT": 1.266e-05,
        "MEAN_MOTION_DDOT": 0,
        "constellation": "starlink",
        "quality_scores": {
          "orbital_stability": 21.673742333333337,
          "coverage_uniformity": 20,
          "handover_frequency": 15.131166666666665,
          "signal_quality": 25,
          "total_score": 81.80490900000001
        }
      },
      {
        "OBJECT_NAME": "STARLINK-3096",
        "OBJECT_ID": "2021-082B",
        "EPOCH": "2025-07-31T22:01:04.516032",
        "MEAN_MOTION": 14.98326837,
        "ECCENTRICITY": 0.0002885,
        "INCLINATION": 70.0004,
        "RA_OF_ASC_NODE": 91.0938,
        "ARG_OF_PERICENTER": 264.5194,
        "MEAN_ANOMALY": 95.5636,
        "EPHEMERIS_TYPE": 0,
        "CLASSIFICATION_TYPE": "U",
        "NORAD_CAT_ID": 49131,
        "ELEMENT_SET_NO": 999,
        "REV_AT_EPOCH": 21389,
        "BSTAR": -1.2973e-05,
        "MEAN_MOTION_DOT": -2.48e-06,
        "MEAN_MOTION_DDOT": 0,
        "constellation": "starlink",
        "quality_scores": {
          "orbital_stability": 21.67916376666667,
          "coverage_uniformity": 20,
          "handover_frequency": 15.121533333333334,
          "signal_quality": 25,
          "total_score": 81.80069710000001
        }
      },
      {
        "OBJECT_NAME": "STARLINK-3103",
        "OBJECT_ID": "2021-082AZ",
        "EPOCH": "2025-07-31T22:49:08.609376",
        "MEAN_MOTION": 14.98330286,
        "ECCENTRICITY": 0.0002463,
        "INCLINATION": 69.9998,
        "RA_OF_ASC_NODE": 91.0261,
        "ARG_OF_PERICENTER": 272.7378,
        "MEAN_ANOMALY": 87.3499,
        "EPHEMERIS_TYPE": 0,
        "CLASSIFICATION_TYPE": "U",
        "NORAD_CAT_ID": 49177,
        "ELEMENT_SET_NO": 999,
        "REV_AT_EPOCH": 21509,
        "BSTAR": 6.3497e-05,
        "MEAN_MOTION_DOT": 6.65e-06,
        "MEAN_MOTION_DDOT": 0,
        "constellation": "starlink",
        "quality_scores": {
          "orbital_stability": 21.685378800000002,
          "coverage_uniformity": 20,
          "handover_frequency": 15.114011111111111,
          "signal_quality": 25,
          "total_score": 81.79938991111112
        }
      },
      {
        "OBJECT_NAME": "STARLINK-3073",
        "OBJECT_ID": "2021-082F",
        "EPOCH": "2025-07-31T21:55:03.802944",
        "MEAN_MOTION": 14.98330812,
        "ECCENTRICITY": 0.0003167,
        "INCLINATION": 69.9998,
        "RA_OF_ASC_NODE": 91.0957,
        "ARG_OF_PERICENTER": 273.0884,
        "MEAN_ANOMALY": 86.9912,
        "EPHEMERIS_TYPE": 0,
        "CLASSIFICATION_TYPE": "U",
        "NORAD_CAT_ID": 49135,
        "ELEMENT_SET_NO": 999,
        "REV_AT_EPOCH": 21390,
        "BSTAR": 2.8089e-05,
        "MEAN_MOTION_DOT": 2.42e-06,
        "MEAN_MOTION_DDOT": 0,
        "constellation": "starlink",
        "quality_scores": {
          "orbital_stability": 21.674801266666663,
          "coverage_uniformity": 20,
          "handover_frequency": 15.121744444444444,
          "signal_quality": 25,
          "total_score": 81.79654571111111
        }
      }