STARLINK-3096           
1 49131U 21082B   25212.91741338 -.00000248  00000+0 -12973-4 0  9990
2 49131  70.0004  91.0938 0002885 264.5194  95.5636 14.98326837213893
STARLINK-3073           
1 49135U 21082F   25212.91323846  .00000242  00000+0  28089-4 0  9991
2 49135  69.9998  91.0957 0003167 273.0884  86.9912 14.98330812213903
STARLINK-3057           
1 49139U 21082K   25212.90489341  .00000228  00000+0  26936-4 0  9990
2 49139  70.0003  91.1245 0002815 269.8313  90.2523 14.98330953213897
STARLINK-3071           
1 49147U 21082T   25212.88820754  .00001266  00000+0  11380-3 0  9992
2 49147  70.0000  91.1805 0003211 263.5591  96.5202 14.98342780213899
STARLINK-3103           
1 49177U 21082AZ  25212.95079409  .00000665  00000+0  63497-4 0  9995
2 49177  69.9998  91.0261 0002463 272.7378  87.3499 14.98330286215091
STARLINK-3043           
1 49179U 21082BB  25212.87151464  .00000398  00000+0  41147-4 0  9991
2 49179  70.0001  91.2079 0002937 269.6627  90.4195 14.98329737213880
